[{"OBJECT_NAME":"STARLINK-34725","OBJECT_ID":"2025-152B","EPOCH":"2026-03-09T14:37:42.633408","MEAN_MOTION":15.05656146,"ECCENTRICITY":0.0002655,"INCLINATION":97.6021,"RA_OF_ASC_NODE":285.4073,"ARG_OF_PERICENTER":81.3772,"MEAN_ANOMALY":278.7755,"EPHEMERIS_TYPE":0,"CLASSIFICATION_TYPE":"U","NORAD_CAT_ID":64843,"ELEMENT_SET_NO":999,"REV_AT_EPOCH":3540,"BSTAR":0.00057169,"MEAN_MOTION_DOT":8.199e-5,"MEAN_MOTION_DDOT":0},{"OBJECT_NAME":"HAMSAT (VO-52)","OBJECT_ID":"2005-017B","EPOCH":"2026-03-09T22:34:09.009120","MEAN_MOTION":15.08773202,"ECCENTRICITY":0.00200128,"INCLINATION":97.9995,"RA_OF_ASC_NODE":87.8294,"ARG_OF_PERICENTER":17.3795,"MEAN_ANOMALY":342.8113,"EPHEMERIS_TYPE":0,"CLASSIFICATION_TYPE":"U","NORAD_CAT_ID":28650,"ELEMENT_SET_NO":999,"REV_AT_EPOCH":13179,"BSTAR":0.00045282519,"MEAN_MOTION_DOT":7.08e-5,"MEAN_MOTION_DDOT":0}]
